OBJECT_NAME,OBJECT_ID,EPOCH,MEAN_MOTION,ECCENTRICITY,INCLINATION,RA_OF_ASC_NODE,ARG_OF_PERICENTER,MEAN_ANOMALY,EPHEMERIS_TYPE,CLASSIFICATION_TYPE,NORAD_CAT_ID,ELEMENT_SET_NO,REV_AT_EPOCH,BSTAR,MEAN_MOTION_DOT,MEAN_MOTION_DDOT
STARLINK-36291,2025-304D,2026-06-25T06:24:48.473280,14.98339063,.00034016,70.0013,263.4194,265.5819,94.4951,0,U,67195,999,2999,.27625689E-3,.3206E-4,0
STARLINK-36239,2025-304E,2026-06-25T06:18:33.613056,14.98338773,.0003657,70.0006,263.4087,268.5910,91.4830,0,U,67196,999,2999,.28125178E-3,.3265E-4,0
STARLINK-36283,2025-304F,2026-06-25T06:42:33.838848,14.98339162,.00035757,70.0010,263.0598,269.2346,90.8403,0,U,67197,999,3000,.29195506E-3,.3393E-4,0
STARLINK-36267,2025-304G,2026-06-24T10:34:53.709888,14.98335966,.00032727,70.0005,265.3505,266.7840,93.2945,0,U,67198,999,2984,.20482841E-3,.2352E-4,0
STARLINK-36268,2025-304H,2026-06-25T06:00:46.556640,14.98339552,.00033659,70.0013,263.3581,272.7559,87.3214,0,U,67199,999,2998,.63816278E-3,.7532E-4,0
STARLINK-36270,2025-304J,2026-06-25T07:00:50.146848,14.98332787,.00027,70.0018,263.1116,263.3178,96.7674,0,U,67200,999,3000,.10485133E-3,.1158E-4,0
STARLINK-36262,2025-304K,2026-06-25T06:12:33.677568,14.98354467,.00035778,70.0008,263.3906,265.2192,94.8558,0,U,67201,999,2999,.50760913E-3,.5973E-4,0
STARLINK-36263,2025-304L,2026-06-25T05:54:31.217760,14.98338200,.00030449,70.0015,263.3472,269.6657,90.4153,0,U,67202,999,2999,.22577029E-3,.2602E-4,0
STARLINK-36224,2025-304M,2026-06-24T12:05:01.175712,14.98342735,.00031975,70.0009,265.1626,262.8726,97.2069,0,U,67203,999,2988,.17567131E-4,.117E-5,0
STARLINK-36185,2025-304N,2026-06-25T06:54:35.172576,14.98339132,.00035175,70.0011,263.0885,266.5636,93.5121,0,U,67204,999,3000,.2992244E-3,.348E-4,0
STARLINK-36197,2025-304P,2026-06-24T12:59:04.899552,14.98345505,.00034359,70.0008,264.8968,268.9107,91.1659,0,U,67205,999,2986,.5131472E-3,.6038E-4,0
STARLINK-36056,2025-304Q,2026-06-25T06:12:47.174112,14.98337269,.00034843,70.0004,263.3863,266.9888,93.0872,0,U,67206,999,2996,.23550978E-3,.2719E-4,0
STARLINK-36225,2025-304R,2026-06-25T05:48:45.374976,14.98347746,.00035513,70.0005,263.3265,268.9052,91.1701,0,U,67207,999,2999,.63968162E-3,.7552E-4,0
STARLINK-36265,2025-304S,2026-06-25T06:06:32.501376,14.98339680,.00033311,70.0011,263.3779,268.8369,91.2408,0,U,67208,999,2999,.38286306E-3,.4479E-4,0
STARLINK-36226,2025-304T,2026-06-25T06:24:34.180992,14.98339000,.00035952,70.0011,263.4213,268.0453,92.0294,0,U,67209,999,2999,.25943193E-3,.3005E-4,0
STARLINK-36173,2025-304U,2026-06-25T07:12:37.272960,14.98337811,.00030916,70.0015,263.1323,267.6727,92.4078,0,U,67210,999,3000,.28904431E-3,.3358E-4,0
STARLINK-36280,2025-304V,2026-06-25T07:00:35.792352,14.98338433,.00030547,70.0012,263.1062,259.6427,100.4388,0,U,67211,999,3000,.27089645E-3,.3141E-4,0
STARLINK-36213,2025-304W,2026-06-25T06:48:34.401600,14.98338579,.00037015,70.0011,263.0727,267.9496,92.1239,0,U,67212,999,3000,.25679065E-3,.2973E-4,0
STARLINK-36199,2025-304X,2026-06-25T06:30:34.049952,14.98345678,.00039169,70.0010,263.0297,269.4051,90.6659,0,U,67213,999,3000,.62249932E-3,.7346E-4,0
STARLINK-36203,2025-304Y,2026-06-25T06:18:47.857824,14.98340151,.00035362,70.0006,263.4018,270.0828,89.9926,0,U,67214,999,2999,.39107215E-4,.374E-5,0
STARLINK-36221,2025-304Z,2026-06-25T06:06:46.575072,14.98340125,.000357,69.9998,263.3692,266.5650,93.5100,0,U,67215,999,2999,.36476755E-3,.4263E-4,0
STARLINK-36212,2025-304AA,2026-06-24T12:17:16.723968,14.98335805,.0003653,70.0010,265.1933,270.3027,89.7713,0,U,67216,999,2988,.2226487E-3,.2565E-4,0
STARLINK-36216,2025-304AB,2026-06-24T12:05:15.048960,14.98337134,.00035633,70.0006,265.1634,267.9795,92.0956,0,U,67217,999,2987,.21076414E-4,.158E-5,0
STARLINK-36211,2025-304AC,2026-06-25T07:06:51.119136,14.98350603,.0003729,70.0004,263.1130,262.7489,97.3246,0,U,67218,999,2997,.37064512E-3,.4335E-4,0
DISKSAT C,2025-305A,2026-06-24T23:39:48.532896,15.09925557,.00066045,45.0037,41.5546,217.6762,142.3652,0,U,67219,999,2850,.55690763E-3,.8942E-4,0
DISKSAT B,2025-305B,2026-06-24T23:29:26.452896,15.08787677,.00048564,45.0051,42.3202,214.6645,145.3915,0,U,67220,999,2849,.13128464E-3,.1851E-4,0
DISKSAT D,2025-305C,2026-06-23T23:32:59.937792,15.09068697,.00054901,45.0036,47.5607,216.5207,143.5295,0,U,67221,999,2834,.24592459E-3,.3714E-4,0
DISKSAT A,2025-305D,2026-06-24T22:29:51.520704,15.09696571,.0005997,45.0031,42.0345,221.4092,138.6330,0,U,67222,999,2848,.34941422E-3,.5479E-4,0
TJS-23,2025-306A,2026-06-24T13:57:31.654368,1.00267423,.00047733,5.5714,297.4484,179.8475,180.2975,0,U,67226,999,196,0,.26E-6,0
QPS-SAR-15 (SUKUNAMI-I),2025-307A,2026-06-25T07:14:06.287424,14.99041972,.00091921,42.0046,183.3375,42.9339,317.2203,0,U,67228,999,2790,.32530558E-3,.3833E-4,0
