[{"id":"67195","name":"STARLINK-36291","tle1":"1 67195U 25304D   26176.26722770  .00003206  00000+0  27626-3 0  9993","tle2":"2 67195  70.0013 263.4194 0003401 265.5819  94.4951 14.98339063 29991"},{"id":"67196","name":"STARLINK-36239","tle1":"1 67196U 25304E   26176.26288904  .00003265  00000+0  28125-3 0  9990","tle2":"2 67196  70.0006 263.4087 0003657 268.5910  91.4830 14.98338773 29993"},{"id":"67197","name":"STARLINK-36283","tle1":"1 67197U 25304F   26176.27955832  .00003393  00000+0  29196-3 0  9994","tle2":"2 67197  70.0010 263.0598 0003575 269.2346  90.8403 14.98339162 30008"},{"id":"67198","name":"STARLINK-36267","tle1":"1 67198U 25304G   26175.44089942  .00002352  00000+0  20483-3 0  9997","tle2":"2 67198  70.0005 265.3505 0003272 266.7840  93.2945 14.98335966 29847"},{"id":"67199","name":"STARLINK-36268","tle1":"1 67199U 25304H   26176.25053885  .00007532  00000+0  63816-3 0  9997","tle2":"2 67199  70.0013 263.3581 0003365 272.7559  87.3214 14.98339552 29989"},{"id":"67200","name":"STARLINK-36270","tle1":"1 67200U 25304J   26176.29224707  .00001158  00000+0  10485-3 0  9999","tle2":"2 67200  70.0018 263.1116 0002700 263.3178  96.7674 14.98332787 30006"},{"id":"67201","name":"STARLINK-36262","tle1":"1 67201U 25304K   26176.25872312  .00005973  00000+0  50761-3 0  9997","tle2":"2 67201  70.0008 263.3906 0003577 265.2192  94.8558 14.98354467 29990"},{"id":"67202","name":"STARLINK-36263","tle1":"1 67202U 25304L   26176.24619465  .00002602  00000+0  22577-3 0  9995","tle2":"2 67202  70.0015 263.3472 0003044 269.6657  90.4153 14.98338200 29990"},{"id":"67203","name":"STARLINK-36224","tle1":"1 67203U 25304M   26175.50348583  .00000117  00000+0  17567-4 0  9997","tle2":"2 67203  70.0009 265.1626 0003197 262.8726  97.2069 14.98342735 29883"},{"id":"67204","name":"STARLINK-36185","tle1":"1 67204U 25304N   26176.28790709  .00003480  00000+0  29922-3 0  9998","tle2":"2 67204  70.0011 263.0885 0003517 266.5636  93.5121 14.98339132 30009"},{"id":"67205","name":"STARLINK-36197","tle1":"1 67205U 25304P   26175.54102893  .00006038  00000+0  51315-3 0  9991","tle2":"2 67205  70.0008 264.8968 0003435 268.9107  91.1659 14.98345505 29868"},{"id":"67206","name":"STARLINK-36056","tle1":"1 67206U 25304Q   26176.25887933  .00002719  00000+0  23551-3 0  9999","tle2":"2 67206  70.0004 263.3863 0003484 266.9888  93.0872 14.98337269 29968"},{"id":"67207","name":"STARLINK-36225","tle1":"1 67207U 25304R   26176.24219184  .00007552  00000+0  63968-3 0  9992","tle2":"2 67207  70.0005 263.3265 0003551 268.9052  91.1701 14.98347746 29990"},{"id":"67208","name":"STARLINK-36265","tle1":"1 67208U 25304S   26176.25454284  .00004479  00000+0  38286-3 0  9996","tle2":"2 67208  70.0011 263.3779 0003331 268.8369  91.2408 14.98339680 29997"},{"id":"67209","name":"STARLINK-36226","tle1":"1 67209U 25304T   26176.26706228  .00003005  00000+0  25943-3 0  9996","tle2":"2 67209  70.0011 263.4213 0003595 268.0453  92.0294 14.98339000 29998"},{"id":"67210","name":"STARLINK-36173","tle1":"1 67210U 25304U   26176.30043140  .00003358  00000+0  28904-3 0  9991","tle2":"2 67210  70.0015 263.1323 0003091 267.6727  92.4078 14.98337811 30009"},{"id":"67211","name":"STARLINK-36280","tle1":"1 67211U 25304V   26176.29208093  .00003141  00000+0  27090-3 0  9995","tle2":"2 67211  70.0012 263.1062 0003054 259.6427 100.4388 14.98338433 30009"},{"id":"67212","name":"STARLINK-36213","tle1":"1 67212U 25304W   26176.28373150  .00002973  00000+0  25679-3 0  9995","tle2":"2 67212  70.0011 263.0727 0003701 267.9496  92.1239 14.98338579 30006"},{"id":"67213","name":"STARLINK-36199","tle1":"1 67213U 25304X   26176.27122743  .00007346  00000+0  62250-3 0  9990","tle2":"2 67213  70.0010 263.0297 0003916 269.4051  90.6659 14.98345678 30007"},{"id":"67214","name":"STARLINK-36203","tle1":"1 67214U 25304Y   26176.26305391  .00000374  00000+0  39107-4 0  9992","tle2":"2 67214  70.0006 263.4018 0003536 270.0828  89.9926 14.98340151 29991"},{"id":"67215","name":"STARLINK-36221","tle1":"1 67215U 25304Z   26176.25470573  .00004263  00000+0  36477-3 0  9994","tle2":"2 67215  69.9998 263.3692 0003570 266.5650  93.5100 14.98340125 29993"},{"id":"67216","name":"STARLINK-36212","tle1":"1 67216U 25304AA  26175.51199912  .00002565  00000+0  22265-3 0  9991","tle2":"2 67216  70.0010 265.1933 0003653 270.3027  89.7713 14.98335805 29887"},{"id":"67217","name":"STARLINK-36216","tle1":"1 67217U 25304AB  26175.50364640  .00000158  00000+0  21076-4 0  9999","tle2":"2 67217  70.0006 265.1634 0003563 267.9795  92.0956 14.98337134 29877"},{"id":"67218","name":"STARLINK-36211","tle1":"1 67218U 25304AC  26176.29642499  .00004335  00000+0  37065-3 0  9993","tle2":"2 67218  70.0004 263.1130 0003729 262.7489  97.3246 14.98350603 29979"},{"id":"67219","name":"DISKSAT C","tle1":"1 67219U 25305A   26175.98597839  .00008942  00000+0  55691-3 0  9990","tle2":"2 67219  45.0037  41.5546 0006604 217.6762 142.3652 15.09925557 28504"},{"id":"67220","name":"DISKSAT B","tle1":"1 67220U 25305B   26175.97877839  .00001851  00000+0  13128-3 0  9993","tle2":"2 67220  45.0051  42.3202 0004856 214.6645 145.3915 15.08787677 28495"},{"id":"67221","name":"DISKSAT D","tle1":"1 67221U 25305C   26174.98124928  .00003714  00000+0  24592-3 0  9995","tle2":"2 67221  45.0036  47.5607 0005490 216.5207 143.5295 15.09068697 28345"},{"id":"67222","name":"DISKSAT A","tle1":"1 67222U 25305D   26175.93740186  .00005479  00000+0  34941-3 0  9991","tle2":"2 67222  45.0031  42.0345 0005997 221.4092 138.6330 15.09696571 28487"},{"id":"67226","name":"TJS-23","tle1":"1 67226U 25306A   26175.58161637  .00000026  00000+0  00000+0 0  9993","tle2":"2 67226   5.5714 297.4484 0004773 179.8475 180.2975  1.00267423  1960"},{"id":"67228","name":"QPS-SAR-15 (SUKUNAMI-I)","tle1":"1 67228U 25307A   26176.30146166  .00003833  00000+0  32531-3 0  9994","tle2":"2 67228  42.0046 183.3375 0009192  42.9339 317.2203 14.99041972 27906"}]